{"fetched_at":"2026-03-29T02:12:04Z","count":15717,"tles":[{"name":"STARLINK-3122","line1":"1 49445U 21104AP  26087.54442973 -.00000191  00000+0  60769-5 0  9999","line2":"2 49445  53.2160 134.8746 0001284  90.1015 270.0124 15.08841243241615","category":"Starlink"}]}